FLOCK 4G-21             
1 62651U 25009AU  26068.19487675  .00013648  00000+0  49619-3 0  9998
2 62651  97.4032 151.1274 0000465 329.5782  30.5431 15.28381075 63677
STARLINK-33820          
1 63584U 25076R   26068.08866065  .00027992  00000+0  10225-2 0  9997
2 63584  42.9942 324.6421 0001772 222.3018 137.7697 15.27591550 51742
